IRIDIUM 144             
1 43249U 18030A   26012.85610316  .00000145  00000+0  44890-4 0  9993
2 43249  86.3979 355.3340 0002286  84.3753 275.7703 14.34218878407870
IRIDIUM 149             
1 43250U 18030B   26012.86244719  .00000013  00000+0 -24635-5 0  9997
2 43250  86.3973 355.3003 0002101  87.4797 272.6639 14.34217682407898
IRIDIUM 157             
1 43251U 18030C   26012.67215934  .00000374  00000+0  12648-3 0  9992
2 43251  86.3979 355.4293 0002133  87.6372 272.5068 14.34215783407843
IRIDIUM 140             
1 43252U 18030D   26012.69119423  .00000068  00000+0  17259-4 0  9995
2 43252  86.3979 355.4344 0002316  85.8188 274.3272 14.34216368407903
IRIDIUM 145             
1 43253U 18030E   26012.67850686  .00000276  00000+0  91384-4 0  9999
2 43253  86.3979 355.4123 0002329  79.1260 281.0197 14.34216513407835
IRIDIUM 146             
1 43254U 18030F   26012.65948390  .00000148  00000+0  45824-4 0  9994
2 43254  86.3979 355.4330 0002207  82.9273 277.2174 14.34218112407847
IRIDIUM 148             
1 43255U 18030G   26012.76730816  .00000068  00000+0  17278-4 0  9992
2 43255  86.3982 355.4287 0002114  85.8329 274.3108 14.34217968407892
IRIDIUM 142             
1 43256U 18030H   26012.87514243  .00000276  00000+0  91404-4 0  9993
2 43256  86.3977 355.2783 0002337  78.8281 281.3177 14.34217325407871
